start=new Date('2022-07-26T00:00:00.000Z').valueOf();
sats=[{"COUNTRY_CODE":"US","PERIOD":"95.592","LAUNCH_DATE":"2020-10-06","CENTER_NAME":"EARTH","BSTAR":"0.00000555060000","SITE":"AFETR","PERIAPSIS":"546.205","INCLINATION":"53.0552","NORAD_CAT_ID":"46563","REF_FRAME":"TEME","ECCENTRICITY":"0.00014780","RCS_SIZE":"LARGE","GP_ID":"208860107","EPOCH":"2022-07-25T15:42:33.383520","OBJECT_ID":"2020-070AH","MEAN_MOTION":"15.06395192","REV_AT_EPOCH":"10037","MEAN_MOTION_DDOT":"0.0000000000000","OBJECT_NAME":"STARLINK-1730","ARG_OF_PERICENTER":"76.6082","TIME_SYSTEM":"UTC","TLE_LINE1":"1 46563U 20070AH  22206.65455305 -.00000199  00000-0  55506-5 0  9994","MEAN_MOTION_DOT":"-0.00000199","RA_OF_ASC_NODE":"335.9685","MEAN_ELEMENT_THEORY":"SGP4","TLE_LINE2":"2 46563  53.0552 335.9685 0001478  76.6082 283.5071 15.06395192100372","OBJECT_TYPE":"PAYLOAD","MEAN_ANOMALY":"283.5071","SEMIMAJOR_AXIS":"6925.363","EPHEMERIS_TYPE":"0","DECAY_DATE":null,"FILE":"3521711","APOAPSIS":"548.252","ELEMENT_SET_NO":"999","CLASSIFICATION_TYPE":"U"},{"MEAN_ANOMALY":"284.7333","OBJECT_TYPE":"PAYLOAD","TLE_LINE2":"2 46564  53.0557 335.4356 0001424  75.3814 284.7333 15.06394340100398","MEAN_MOTION_DOT":"-0.00001756","RA_OF_ASC_NODE":"335.4356","MEAN_ELEMENT_THEORY":"SGP4","ELEMENT_SET_NO":"999","APOAPSIS":"548.217","CLASSIFICATION_TYPE":"U","FILE":"3521711","EPHEMERIS_TYPE":"0","SEMIMAJOR_AXIS":"6925.366","DECAY_DATE":null,"MEAN_MOTION_DDOT":"0.0000000000000","TLE_LINE1":"1 46564U 20070AJ  22206.76882815 -.00001756  00000-0 -99050-4 0  9999","TIME_SYSTEM":"UTC","ARG_OF_PERICENTER":"75.3814","OBJECT_NAME":"STARLINK-1733","RCS_SIZE":"LARGE","ECCENTRICITY":"0.00014240","NORAD_CAT_ID":"46564","REF_FRAME":"TEME","PERIAPSIS":"546.245","INCLINATION":"53.0557","OBJECT_ID":"2020-070AJ","REV_AT_EPOCH":"10039","MEAN_MOTION":"15.06394340","EPOCH":"2022-07-25T18:27:06.752160","GP_ID":"208860857","PERIOD":"95.592","COUNTRY_CODE":"US","BSTAR":"-0.00009905000000","SITE":"AFETR","CENTER_NAME":"EARTH","LAUNCH_DATE":"2020-10-06"},{"TIME_SYSTEM":"UTC","ARG_OF_PERICENTER":"78.5461","OBJECT_NAME":"STARLINK-1735","TLE_LINE1":"1 46565U 20070AK  22206.74671114 -.00003080  00000-0 -18803-3 0  9994","MEAN_MOTION_DDOT":"0.0000000000000","DECAY_DATE":null,"SEMIMAJOR_AXIS":"6925.400","EPHEMERIS_TYPE":"0","ELEMENT_SET_NO":"999","APOAPSIS":"548.160","CLASSIFICATION_TYPE":"U","FILE":"3521711","OBJECT_TYPE":"PAYLOAD","TLE_LINE2":"2 46565  53.0548 335.5479 0001292  78.5461 281.5673 15.06383076100387","MEAN_ELEMENT_THEORY":"SGP4","RA_OF_ASC_NODE":"335.5479","MEAN_MOTION_DOT":"-0.00003080","MEAN_ANOMALY":"281.5673","CENTER_NAME":"EARTH","LAUNCH_DATE":"2020-10-06","SITE":"AFETR","BSTAR":"-0.00018803000000","COUNTRY_CODE":"US","PERIOD":"95.593","GP_ID":"208859605","MEAN_MOTION":"15.06383076","REV_AT_EPOCH":"10038","OBJECT_ID":"2020-070AK","EPOCH":"2022-07-25T17:55:15.842496","INCLINATION":"53.0548","PERIAPSIS":"546.371","RCS_SIZE":"LARGE","ECCENTRICITY":"0.00012920","REF_FRAME":"TEME","NORAD_CAT_ID":"46565"},{"SEMIMAJOR_AXIS":"6925.349","EPHEMERIS_TYPE":"0","DECAY_DATE":null,"FILE":"3521711","CLASSIFICATION_TYPE":"U","APOAPSIS":"548.417","ELEMENT_SET_NO":"999","MEAN_MOTION_DOT":"0.00001632","RA_OF_ASC_NODE":"335.5993","MEAN_ELEMENT_THEORY":"SGP4","TLE_LINE2":"2 46566  53.0561 335.5993 0001738  70.9732 289.1445 15.06399939100382","OBJECT_TYPE":"PAYLOAD","MEAN_ANOMALY":"289.1445","OBJECT_NAME":"STARLINK-1740","ARG_OF_PERICENTER":"70.9732","TIME_SYSTEM":"UTC","TLE_LINE1":"1 46566U 20070AL  22206.73195554  .00001632  00000-0  12841-3 0  9998","MEAN_MOTION_DDOT":"0.0000000000000","GP_ID":"208859855","EPOCH":"2022-07-25T17:34:00.958656","OBJECT_ID":"2020-070AL","MEAN_MOTION":"15.06399939","REV_AT_EPOCH":"10038","PERIAPSIS":"546.010","INCLINATION":"53.0561","NORAD_CAT_ID":"46566","REF_FRAME":"TEME","ECCENTRICITY":"0.00017380","RCS_SIZE":"LARGE","LAUNCH_DATE":"2020-10-06","CENTER_NAME":"EARTH","SITE":"AFETR","BSTAR":"0.00012841000000","COUNTRY_CODE":"US","PERIOD":"95.592"},{"APOAPSIS":"548.199","ELEMENT_SET_NO":"999","CLASSIFICATION_TYPE":"U","FILE":"3521711","SEMIMAJOR_AXIS":"6925.407","EPHEMERIS_TYPE":"0","DECAY_DATE":null,"MEAN_ANOMALY":"269.6232","TLE_LINE2":"2 46567  53.0545 335.1679 0001338  90.4910 269.6232 15.06380926100409","OBJECT_TYPE":"PAYLOAD","MEAN_MOTION_DOT":"-0.00002624","MEAN_ELEMENT_THEORY":"SGP4","RA_OF_ASC_NODE":"335.1679","TLE_LINE1":"1 46567U 20070AM  22206.82779693 -.00002624  00000-0 -15738-3 0  9993","TIME_SYSTEM":"UTC","OBJECT_NAME":"STARLINK-1741","ARG_OF_PERICENTER":"90.4910","MEAN_MOTION_DDOT":"0.0000000000000","OBJECT_ID":"2020-070AM","MEAN_MOTION":"15.06380926","REV_AT_EPOCH":"10040","EPOCH":"2022-07-25T19:52:01.654752","GP_ID":"208860607","RCS_SIZE":"LARGE","ECCENTRICITY":"0.00013380","NORAD_CAT_ID":"46567","REF_FRAME":"TEME","PERIAPSIS":"546.345","INCLINATION":"53.0545","BSTAR":"-0.00015738000000","SITE":"AFETR","CENTER_NAME":"EARTH","LAUNCH_DATE":"2020-10-06","PERIOD":"95.593","COUNTRY_CODE":"US"},{"COUNTRY_CODE":"US","PERIOD":"95.593","CENTER_NAME":"EARTH","LAUNCH_DATE":"2020-10-06","SITE":"AFETR","BSTAR":"-0.00009469500000","PERIAPSIS":"546.189","INCLINATION":"53.0564","RCS_SIZE":"LARGE","ECCENTRICITY":"0.00015310","REF_FRAME":"TEME","NORAD_CAT_ID":"46569","GP_ID":"208860358","MEAN_MOTION":"15.06388191","REV_AT_EPOCH":"10039","OBJECT_ID":"2020-070AP","EPOCH":"2022-07-25T18:37:43.789728","MEAN_MOTION_DDOT":"0.0000000000000","TIME_SYSTEM":"UTC","OBJECT_NAME":"STARLINK-1747","ARG_OF_PERICENTER":"69.5909","TLE_LINE1":"1 46569U 20070AP  22206.77620127 -.00001691  00000-0 -94695-4 0  9999","TLE_LINE2":"2 46569  53.0564 335.4051 0001531  69.5909 290.5244 15.06388191100395","OBJECT_TYPE":"PAYLOAD","MEAN_ELEMENT_THEORY":"SGP4","RA_OF_ASC_NODE":"335.4051","MEAN_MOTION_DOT":"-0.00001691","MEAN_ANOMALY":"290.5244","DECAY_DATE":null,"EPHEMERIS_TYPE":"0","SEMIMAJOR_AXIS":"6925.385","APOAPSIS":"548.310","CLASSIFICATION_TYPE":"U","ELEMENT_SET_NO":"999","FILE":"3521711"},{"SITE":"AFETR","BSTAR":"0.00087434000000","CENTER_NAME":"EARTH","LAUNCH_DATE":"2020-10-06","PERIOD":"95.470","COUNTRY_CODE":"US","MEAN_MOTION":"15.08330297","REV_AT_EPOCH":"10039","OBJECT_ID":"2020-070AQ","EPOCH":"2022-07-25T18:35:50.045856","GP_ID":"208859106","ECCENTRICITY":"0.00013070","RCS_SIZE":"LARGE","REF_FRAME":"TEME","NORAD_CAT_ID":"46570","PERIAPSIS":"540.399","INCLINATION":"53.0562","TLE_LINE1":"1 46570U 20070AQ  22206.77488479  .00013464  00000-0  87434-3 0  9994","TIME_SYSTEM":"UTC","OBJECT_NAME":"STARLINK-1748","ARG_OF_PERICENTER":"146.5647","MEAN_MOTION_DDOT":"0.0000000000000","APOAPSIS":"542.208","ELEMENT_SET_NO":"999","CLASSIFICATION_TYPE":"U","FILE":"3521711","DECAY_DATE":null,"EPHEMERIS_TYPE":"0","SEMIMAJOR_AXIS":"6919.439","MEAN_ANOMALY":"213.5426","OBJECT_TYPE":"PAYLOAD","TLE_LINE2":"2 46570  53.0562 334.9932 0001307 146.5647 213.5426 15.08330297100396","RA_OF_ASC_NODE":"334.9932","MEAN_ELEMENT_THEORY":"SGP4","MEAN_MOTION_DOT":"0.00013464"},{"TLE_LINE1":"1 46572U 20070AS  22206.81395539 -.00000453  00000-0 -11495-4 0  9996","ARG_OF_PERICENTER":"61.4882","OBJECT_NAME":"STARLINK-1531","TIME_SYSTEM":"UTC","MEAN_MOTION_DDOT":"0.0000000000000","FILE":"3521711","APOAPSIS":"548.234","ELEMENT_SET_NO":"999","CLASSIFICATION_TYPE":"U","DECAY_DATE":null,"SEMIMAJOR_AXIS":"6925.384","EPHEMERIS_TYPE":"0","MEAN_ANOMALY":"298.6250","MEAN_ELEMENT_THEORY":"SGP4","RA_OF_ASC_NODE":"355.2276","MEAN_MOTION_DOT":"-0.00000453","OBJECT_TYPE":"PAYLOAD","TLE_LINE2":"2 46572  53.0552 355.2276 0001422  61.4882 298.6250 15.06388461100111","SITE":"AFETR","BSTAR":"-0.00001149500000","LAUNCH_DATE":"2020-10-06","CENTER_NAME":"EARTH","PERIOD":"95.593","COUNTRY_CODE":"US","EPOCH":"2022-07-25T19:32:05.745696","MEAN_MOTION":"15.06388461","REV_AT_EPOCH":"10011","OBJECT_ID":"2020-070AS","GP_ID":"208859356","REF_FRAME":"TEME","NORAD_CAT_ID":"46572","ECCENTRICITY":"0.00014220","RCS_SIZE":"LARGE","PERIAPSIS":"546.264","INCLINATION":"53.0552"},{"ECCENTRICITY":"0.00015850","RCS_SIZE":"LARGE","NORAD_CAT_ID":"46573","REF_FRAME":"TEME","INCLINATION":"53.0569","PERIAPSIS":"546.119","OBJECT_ID":"2020-070AT","MEAN_MOTION":"15.06398998","REV_AT_EPOCH":"10032","EPOCH":"2022-07-25T18:59:33.980928","GP_ID":"208860108","PERIOD":"95.592","COUNTRY_CODE":"US","SITE":"AFETR","BSTAR":"-0.00002029000000","CENTER_NAME":"EARTH","LAUNCH_DATE":"2020-10-06","MEAN_ANOMALY":"297.1875","OBJECT_TYPE":"PAYLOAD","TLE_LINE2":"2 46573  53.0569 340.3264 0001585  62.9275 297.1875 15.06398998100320","MEAN_MOTION_DOT":"-0.00000584","RA_OF_ASC_NODE":"340.3264","MEAN_ELEMENT_THEORY":"SGP4","ELEMENT_SET_NO":"999","APOAPSIS":"548.314","CLASSIFICATION_TYPE":"U","FILE":"3521711","EPHEMERIS_TYPE":"0","SEMIMAJOR_AXIS":"6925.352","DECAY_DATE":null,"MEAN_MOTION_DDOT":"0.0000000000000","TLE_LINE1":"1 46573U 20070AT  22206.79136552 -.00000584  00000-0 -20290-4 0  9990","TIME_SYSTEM":"UTC","ARG_OF_PERICENTER":"62.9275","OBJECT_NAME":"STARLINK-1650"},{"NORAD_CAT_ID":"46574","REF_FRAME":"TEME","RCS_SIZE":"LARGE","ECCENTRICITY":"0.00013800","PERIAPSIS":"546.283","INCLINATION":"53.0552","EPOCH":"2022-07-25T18:39:42.467904","OBJECT_ID":"2020-070AU","MEAN_MOTION":"15.06391871","REV_AT_EPOCH":"10032","GP_ID":"208860858","PERIOD":"95.593","COUNTRY_CODE":"US","BSTAR":"0.00007198100000","SITE":"AFETR","LAUNCH_DATE":"2020-10-06","CENTER_NAME":"EARTH","MEAN_ANOMALY":"285.4951","MEAN_MOTION_DOT":"0.00000791","RA_OF_ASC_NODE":"340.4091","MEAN_ELEMENT_THEORY":"SGP4","TLE_LINE2":"2 46574  53.0552 340.4091 0001380  74.6190 285.4951 15.06391871100329","OBJECT_TYPE":"PAYLOAD","FILE":"3521711","ELEMENT_SET_NO":"999","APOAPSIS":"548.194","CLASSIFICATION_TYPE":"U","SEMIMAJOR_AXIS":"6925.373","EPHEMERIS_TYPE":"0","DECAY_DATE":null,"MEAN_MOTION_DDOT":"0.0000000000000","TLE_LINE1":"1 46574U 20070AU  22206.77757486  .00000791  00000-0  71981-4 0  9995","ARG_OF_PERICENTER":"74.6190","OBJECT_NAME":"STARLINK-1660","TIME_SYSTEM":"UTC"}];
